{"epoch":1784710044,"count":18256,"objects":[{"id":"58900","name":"LEMUR 2 VALHALLA","type":"PAYLOAD","l1":"1 58900U 24022B   26202.11929081  .00011964  00000-0  29564-3 0  9995","l2":"2 58900  97.4082  52.5373 0008599   3.2856 356.8445 15.40602327137493"},{"id":"58903","name":"LEMUR 2 CAEL","type":"PAYLOAD","l1":"1 58903U 24022E   26202.16451991  .00013425  00000-0  31681-3 0  9990","l2":"2 58903  97.4059  53.5807 0006532 346.7090  13.3984 15.41983052137573"},{"id":"59146","name":"LEMUR 2 JOHNNYTRUONG","type":"PAYLOAD","l1":"1 59146U 24043BA  26202.36505373  .00040411  00000-0  44704-3 0  9994","l2":"2 59146  97.5399 356.2569 0003717  74.4334 285.7334 15.62913525133376"},{"id":"60471","name":"LEMUR 2 TOMATOKECHUP","type":"PAYLOAD","l1":"1 60471U 24149D   26202.17067799  .00008094  00000-0  22832-3 0  9997","l2":"2 60471  97.3785 284.3180 0003443 111.4342 248.7269 15.36660114107385"},{"id":"60533","name":"LEMUR 2 STELLA","type":"PAYLOAD","l1":"1 60533U 24149BT  26202.49139980  .00009934  00000-0  57474-3 0  9997","l2":"2 60533  97.6726 285.1114 0001435 121.1366 239.0005 15.12456303105680"},{"id":"60536","name":"LEMUR 2 MARHISYAM","type":"PAYLOAD","l1":"1 60536U 24149BW  26202.48479103  .00008440  00000-0  49723-3 0  9992","l2":"2 60536  97.6870 285.5876 0002170  59.8022 300.3422 15.11853238105665"},{"id":"60576","name":"LEMUR 2 AHMED-ASRAR","type":"PAYLOAD","l1":"1 60576U 24149DN  26202.22045321  .00008156  00000-0  46065-3 0  9999","l2":"2 60576  97.6995 287.5489 0001732 180.2350 179.8880 15.13387282105711"},{"id":"60577","name":"LEMUR 2 LLOYD","type":"PAYLOAD","l1":"1 60577U 24149DP  26202.51116047  .00009573  00000-0  59556-3 0  9999","l2":"2 60577  97.6732 283.6712 0004187  54.5132 305.6487 15.09823724105572"},{"id":"60578","name":"LEMUR 2 SQUIRRELCOMM","type":"PAYLOAD","l1":"1 60578U 24149DQ  26201.97845926  .00004986  00000-0  33279-3 0  9991","l2":"2 60578  97.6699 282.7893 0004012 298.5482  61.5341 15.07484012105499"},{"id":"60579","name":"LEMUR 2 SIERRINI","type":"PAYLOAD","l1":"1 60579U 24149DR  26202.51477446  .00010409  00000-0  61633-3 0  9993","l2":"2 60579  97.6829 285.2731 0006058  73.7212 286.4684 15.11595047105641"},{"id":"62694","name":"LEMUR 2 WILSON","type":"PAYLOAD","l1":"1 62694U 25009CP  26202.22451383  .00001714  00000-0  16081-3 0  9995","l2":"2 62694  97.7015 280.0923 0001600 288.3880  71.7167 14.95291662 82448"},{"id":"62696","name":"LEMUR 2 STAR-FOX","type":"PAYLOAD","l1":"1 62696U 25009CR  26202.18575034  .00005773  00000-0  43477-3 0  9990","l2":"2 62696  97.6900 283.5498 0001583  17.9972 342.1308 15.02890489 82662"},{"id":"62699","name":"LEMUR 2 ARIANNA","type":"PAYLOAD","l1":"1 62699U 25009CU  26202.18420592  .00006042  00000-0  45470-3 0  9996","l2":"2 62699  97.6841 283.2958 0001893  27.8546 332.2780 15.02894847 82664"},{"id":"62706","name":"LEMUR 2 ALISIA","type":"PAYLOAD","l1":"1 62706U 25009DB  26202.22181207  .00005720  00000-0  42691-3 0  9991","l2":"2 62706  97.6959 284.1703 0004934 113.1534 247.0211 15.03228747105272"},{"id":"62711","name":"LEMUR 2 ROUNDTRIPPER","type":"PAYLOAD","l1":"1 62711U 25009DG  26202.48883274  .00006768  00000-0  49024-3 0  9998","l2":"2 62711  97.7239 285.1289 0004396  52.1825 307.9798 15.04292500 82782"},{"id":"62712","name":"LEMUR 2 MYNAMEISJEFF","type":"PAYLOAD","l1":"1 62712U 25009DH  26202.48735711  .00007052  00000-0  51072-3 0  9994","l2":"2 62712  97.7286 285.5292 0004342  84.9538 275.2183 15.04285045 82789"}]}